STARLINK-30400
1 57937U 23148C   25333.17323047  .00000738  00000+0  37061-4 0  9990
2 57937  53.1609 131.0820 0001002  88.0653 272.0463 15.30190481123030